OBJECT_NAME,OBJECT_ID,EPOCH,MEAN_MOTION,ECCENTRICITY,INCLINATION,RA_OF_ASC_NODE,ARG_OF_PERICENTER,MEAN_ANOMALY,EPHEMERIS_TYPE,CLASSIFICATION_TYPE,NORAD_CAT_ID,ELEMENT_SET_NO,REV_AT_EPOCH,BSTAR,MEAN_MOTION_DOT,MEAN_MOTION_DDOT
TRITON-1,2013-066M,2026-06-04T06:17:08.068416,14.81658641,.008841,97.8259,65.3632,276.8265,82.2895,0,U,39427,999,67217,.34379348E-3,.2836E-4,0
GOMX-1,2013-066Q,2026-06-04T07:35:06.834912,14.69407998,.01299815,97.6486,356.5910,118.4120,243.0259,0,U,39430,999,66802,.33944267E-3,.2236E-4,0
CUBEBUG-2 (LO-74),2013-066AA,2026-06-03T07:55:56.668800,14.93641817,.00594532,97.8904,103.2522,73.9566,286.8190,0,U,39440,999,67492,.47122985E-3,.5093E-4,0
NEE-02 KRYSAOR,2013-066AB,2026-06-02T19:19:10.619328,14.86554787,.0067604,97.8894,93.1239,116.2445,244.5740,0,U,39441,999,67406,.2311691E-3,.2076E-4,0
FUNCUBE-1 (AO-73),2013-066AE,2026-06-03T17:33:37.044000,15.09317269,.00346977,97.8276,125.8984,248.4796,111.2732,0,U,39444,999,67763,.51138585E-3,.8204E-4,0
UWE-3,2013-066AG,2026-06-04T02:44:55.111200,14.96917145,.00493925,97.8703,111.1024,5.4277,354.7469,0,U,39446,999,67562,.38663104E-3,.4488E-4,0
SMDC ONE 2.4,2013-072H,2026-06-04T02:17:42.874368,15.17923439,.01433514,120.4927,301.5482,5.0942,355.1558,0,U,39469,999,11584,.41720498E-3,.10777E-3,0
COSMOS 2488 (RODNIK-S 7),2013-076A,2026-06-04T07:40:02.299584,12.42905321,.0020668,82.4827,176.7121,121.8789,238.4305,0,U,39483,999,56429,-.9941529E-5,.9E-7,0
COSMOS 2489 (RODNIK-S 8),2013-076B,2026-06-04T07:03:56.135808,12.42879242,.00224966,82.4864,178.1022,122.0426,238.2843,0,U,39484,999,56434,-.27150193E-3,-.28E-6,0
COSMOS 2490 (RODNIK-S 9),2013-076C,2026-06-04T06:23:25.567296,12.42877735,.00224159,82.4810,176.1928,137.1002,223.1831,0,U,39485,999,56427,.27813191E-3,.49E-6,0
KAZEOSAT 1,2014-024A,2026-06-04T07:46:58.332864,14.42074587,.00015035,98.3206,228.0905,79.1407,280.9952,0,U,39731,999,63670,.6369901E-4,.167E-5,0
COSMOS 2496 (RODNIK-S 10),2014-028A,2026-06-04T07:18:12.814272,12.42877984,.00211579,82.4441,116.8000,105.4460,254.8958,0,U,39761,999,54591,.19221647E-3,.37E-6,0
COSMOS 2497 (RODNIK-S 11),2014-028B,2026-06-04T06:42:51.206976,12.42893540,.00217568,82.4487,118.5002,100.7516,259.6014,0,U,39762,999,54591,.13016881E-3,.28E-6,0
COSMOS 2498 (RODNIK-S 12),2014-028C,2026-06-04T06:11:53.180160,12.42979590,.00224873,82.4449,117.0064,100.5336,259.8278,0,U,39763,999,54594,.69366639E-4,.2E-6,0
HODOYOSHI-4,2014-033B,2026-06-04T07:48:51.274080,14.88095899,.00235538,97.5447,340.7689,352.0357,8.0483,0,U,40011,999,64689,.14586474E-3,.1296E-4,0
UNISAT-6,2014-033C,2026-06-03T16:27:54.809856,14.88166007,.0046407,97.7869,307.6374,112.5348,248.0791,0,U,40012,999,64415,.38451616E-3,.3559E-4,0
DEIMOS-2,2014-033D,2026-06-04T06:06:07.963776,14.93686175,.00018942,97.5837,30.1964,57.7184,302.4220,0,U,40013,999,63579,.15910318E-3,.1628E-4,0
BUGSAT-1 (TITA),2014-033E,2026-06-04T07:02:18.375072,15.15440739,.00270417,98.0425,247.0894,222.8501,137.0623,0,U,40014,999,65388,.34979107E-3,.6598E-4,0
SAUDISAT 4,2014-033G,2026-06-04T04:50:10.246272,14.79525826,.00461266,97.7569,301.7869,114.9486,245.6529,0,U,40016,999,64415,.13468372E-3,.974E-5,0
APRIZESAT 9,2014-033J,2026-06-03T07:02:21.027552,14.74195339,.00648781,97.9044,287.8329,244.4445,115.0047,0,U,40018,999,64151,.11359589E-3,.722E-5,0
BRITE-CA1 (TORONTO),2014-033L,2026-06-03T07:30:38.858400,14.72656654,.00777195,97.9723,283.4981,322.1342,37.4414,0,U,40020,999,64017,.12817401E-3,.802E-5,0
