TRITON-1                
1 39427U 13066M   26155.26189894  .00002836  00000+0  34379-3 0  9994
2 39427  97.8259  65.3632 0088410 276.8265  82.2895 14.81658641672170
GOMX-1                  
1 39430U 13066Q   26155.31605133  .00002236  00000+0  33944-3 0  9994
2 39430  97.6486 356.5910 0129981 118.4120 243.0259 14.69407998668021
CUBEBUG-2 (LO-74)       
1 39440U 13066AA  26154.33051700  .00005093  00000+0  47123-3 0  9999
2 39440  97.8904 103.2522 0059453  73.9566 286.8190 14.93641817674922
NEE-02 KRYSAOR          
1 39441U 13066AB  26153.80498402  .00002076  00000+0  23117-3 0  9990
2 39441  97.8894  93.1239 0067604 116.2445 244.5740 14.86554787674065
FUNCUBE-1 (AO-73)       
1 39444U 13066AE  26154.73167875  .00008204  00000+0  51139-3 0  9997
2 39444  97.8276 125.8984 0034697 248.4796 111.2732 15.09317269677630
UWE-3                   
1 39446U 13066AG  26155.11452675  .00004488  00000+0  38663-3 0  9994
2 39446  97.8703 111.1024 0049392   5.4277 354.7469 14.96917145675625
SMDC ONE 2.4            
1 39469U 13072H   26155.09563512  .00010777  00000+0  41720-3 0  9992
2 39469 120.4927 301.5482 0143351   5.0942 355.1558 15.17923439115843
COSMOS 2488 (RODNIK-S 7)
1 39483U 13076A   26155.31947106  .00000009  00000+0 -99415-5 0  9996
2 39483  82.4827 176.7121 0020668 121.8789 238.4305 12.42905321564293
COSMOS 2489 (RODNIK-S 8)
1 39484U 13076B   26155.29439972 -.00000028  00000+0 -27150-3 0  9998
2 39484  82.4864 178.1022 0022496 122.0426 238.2843 12.42879242564346
COSMOS 2490 (RODNIK-S 9)
1 39485U 13076C   26155.26626814  .00000049  00000+0  27813-3 0  9996
2 39485  82.4810 176.1928 0022415 137.1002 223.1831 12.42877735564276
KAZEOSAT 1              
1 39731U 14024A   26155.32428626  .00000167  00000+0  63699-4 0  9996
2 39731  98.3206 228.0905 0001503  79.1407 280.9952 14.42074587636705
COSMOS 2496 (RODNIK-S *)
1 39761U 14028A   26155.30431498  .00000037  00000+0  19222-3 0  9990
2 39761  82.4441 116.8000 0021157 105.4460 254.8958 12.42877984545910
COSMOS 2497 (RODNIK-S *)
1 39762U 14028B   26155.27975934  .00000028  00000+0  13017-3 0  9991
2 39762  82.4487 118.5002 0021756 100.7516 259.6014 12.42893540545919
COSMOS 2498 (RODNIK-S *)
1 39763U 14028C   26155.25825440  .00000020  00000+0  69367-4 0  9998
2 39763  82.4449 117.0064 0022487 100.5336 259.8278 12.42979590545947
HODOYOSHI-4             
1 40011U 14033B   26155.32559345  .00001296  00000+0  14586-3 0  9996
2 40011  97.5447 340.7689 0023553 352.0357   8.0483 14.88095899646891
UNISAT-6                
1 40012U 14033C   26154.68605104  .00003559  00000+0  38452-3 0  9992
2 40012  97.7869 307.6374 0046407 112.5348 248.0791 14.88166007644152
DEIMOS-2                
1 40013U 14033D   26155.25425884  .00001628  00000+0  15910-3 0  9991
2 40013  97.5837  30.1964 0001894  57.7184 302.4220 14.93686175635799
BUGSAT-1 (TITA)         
1 40014U 14033E   26155.29326823  .00006598  00000+0  34979-3 0  9996
2 40014  98.0425 247.0894 0027041 222.8501 137.0623 15.15440739653888
SAUDISAT 4              
1 40016U 14033G   26155.20150748  .00000974  00000+0  13468-3 0  9992
2 40016  97.7569 301.7869 0046126 114.9486 245.6529 14.79525826644154
APRIZESAT 9             
1 40018U 14033J   26154.29329893  .00000722  00000+0  11360-3 0  9991
2 40018  97.9044 287.8329 0064878 244.4445 115.0047 14.74195339641518
BRITE-CA1 (TORONTO)     
1 40020U 14033L   26154.31294975  .00000802  00000+0  12817-3 0  9996
2 40020  97.9723 283.4981 0077719 322.1342  37.4414 14.72656654640175
